[{"OBJECT_NAME":"HERMES-6","OBJECT_ID":"2025-052BK","EPOCH":"2026-03-09T21:29:23.907840","MEAN_MOTION":15.21631048,"ECCENTRICITY":0.00073357,"INCLINATION":97.4102,"RA_OF_ASC_NODE":322.8569,"ARG_OF_PERICENTER":144.5073,"MEAN_ANOMALY":215.6652,"EPHEMERIS_TYPE":0,"CLASSIFICATION_TYPE":"U","NORAD_CAT_ID":63489,"ELEMENT_SET_NO":999,"REV_AT_EPOCH":5472,"BSTAR":0.00042019054,"MEAN_MOTION_DOT":9.433e-5,"MEAN_MOTION_DDOT":0},{"OBJECT_NAME":"DELTA 1 DEB","OBJECT_ID":"1977-065DM","EPOCH":"2026-03-09T07:55:08.653728","MEAN_MOTION":13.83856119,"ECCENTRICITY":0.06183946,"INCLINATION":29.0603,"RA_OF_ASC_NODE":154.8442,"ARG_OF_PERICENTER":349.0049,"MEAN_ANOMALY":9.7539,"EPHEMERIS_TYPE":0,"CLASSIFICATION_TYPE":"U","NORAD_CAT_ID":10338,"ELEMENT_SET_NO":999,"REV_AT_EPOCH":39991,"BSTAR":0.00046760584,"MEAN_MOTION_DOT":2.556e-5,"MEAN_MOTION_DDOT":0}]
